satname,norad_id,inclination_deg,eccentricity,mean_motion_rev_per_day,perigee_km,apogee_km,l1,l2
STARLINK-1151,45081,53.0558,0.0001303,15.06409231,546.2808971665445,548.0856356279673,1 45081U 20006AP  25322.63654001  .00009343  00000+0  64510-3 0  9992,2 45081  53.0558  45.2253 0001303 120.0201 240.0917 15.06409231320009
STARLINK-1190,45083,53.034,0.0004939,16.0820002,248.51119624404328,255.06023390199243,1 45083U 20006AR  25322.35584263  .00823402  37476-3  96026-3 0  9993,2 45083  53.0340 345.3722 0004939 347.7311  12.3601 16.08200020320810
STARLINK-1185,45087,53.0562,0.0001058,15.06415317,546.4319170263434,547.897310847854,1 45087U 20006AV  25322.61257623  .00013200  00000+0  90300-3 0  9998,2 45087  53.0562  25.2616 0001058  91.3513 268.7597 15.06415317320287
STARLINK-1183,45088,53.0584,0.0002007,15.06410242,545.7902567056572,548.5700790168366,1 45088U 20006AW  25322.56835098  .00006869  00000+0  47945-3 0  9991,2 45088  53.0584  25.4612 0002007  75.3751 284.7461 15.06410242320270
STARLINK-1142,45093,53.0314,0.0008355,15.69776293,353.90772523523447,365.16637857596834,1 45093U 20006BB  25322.91671295  .00289337  00000+0  23011-2 0  9993,2 45093  53.0314 309.4054 0008355  69.8915 310.7238 15.69776293  5850
STARLINK-1152,45096,53.0446,0.0004084,15.25547599,486.336994616192,491.94618776947846,1 45096U 20006BE  25322.48393981  .00015694  00000+0  62256-3 0  9999,2 45096  53.0446   5.7018 0004084 254.7881 105.2665 15.25547599320541
STARLINK-1184,45098,53.0553,0.0001269,15.06415969,546.2837951643596,548.0414362068204,1 45098U 20006BG  25322.58309394  .00012059  00000+0  82674-3 0  9995,2 45098  53.0553  25.3946 0001269  75.4399 284.6731 15.06415969320274
STARLINK-1193,45100,53.0552,0.0001509,15.06408516,546.1404265888914,548.230488906639,1 45100U 20006BJ  25322.57940478  .00008283  00000+0  57419-3 0  9995,2 45100  53.0552  25.4102 0001509  98.1919 261.9241 15.06408516320273
STARLINK-1143,45179,53.0478,0.0009069,15.43055335,430.9173488148672,443.27882221297205,1 45179U 20012B   25322.53775794  .00100173  00000+0  22111-2 0  9992,2 45179  53.0478 144.7785 0009069 115.7187 244.4755 15.43055335318664
STARLINK-1202,45183,53.052,0.0001446,15.06398165,546.2157757399873,548.2185881694095,1 45183U 20012F   25322.64207588  .00000724  00000+0  67528-4 0  9994,2 45183  53.0520 185.1330 0001446  81.8480 278.2672 15.06398165318104
STARLINK-1216,45185,53.0518,7.23e-05,15.06407796,546.6869634509148,547.688365397391,1 45185U 20012H   25322.63470172  .00001450  00000+0  11619-3 0  9992,2 45185  53.0518 185.1623 0000723  77.7913 282.3157 15.06407796318048
STARLINK-1225,45187,53.0559,0.0001525,15.06399967,546.1555434080174,548.267774749037,1 45187U 20012K   25322.65312918 -.00001194  00000+0 -61275-4 0  9990,2 45187  53.0559 185.0816 0001525  97.6241 262.4921 15.06399967318097
STARLINK-1230,45189,53.0536,0.0001268,15.06393577,546.353106884857,548.1093802714286,1 45189U 20012M   25321.99334377 -.00000521  00000+0 -16073-4 0  9990,2 45189  53.0536 188.0465 0001268  90.9930 269.1204 15.06393577315223
STARLINK-1234,45190,53.0544,0.00038,15.38381244,448.3006384481032,453.49070327795926,1 45190U 20012N   25321.77275991  .00064723  00000+0  16806-2 0  9998,2 45190  53.0544 142.2828 0003800 168.2239 191.8854 15.38381244318525
STARLINK-1269,45197,53.0527,0.0001176,15.06399274,546.3993617725246,548.0282042766921,1 45197U 20012V   25322.66787125 -.00000120  00000+0  10848-4 0  9995,2 45197  53.0527 185.0167 0001176  95.0465 265.0658 15.06399274318079
STARLINK-1154,45198,53.039,0.0002901,15.06404023,545.1901880103796,549.208268089893,1 45198U 20012W   25322.85769193 -.00001763  00000+0 -99416-4 0  9995,2 45198  53.0390 164.1563 0002901  87.3303 272.8018 15.06404023318354
STARLINK-1199,45201,53.0545,0.0001479,15.06380013,546.2485477801629,548.2970840037042,1 45201U 20012Z   25322.53702047  .00000646  00000+0  62308-4 0  9997,2 45201  53.0545 165.6038 0001479 103.0382 257.0772 15.06380013318361
STARLINK-1209,45206,53.0532,0.0002217,15.3235639,467.26606688560696,470.30199166998773,1 45206U 20012AE  25322.81308567  .00063041  00000+0  19848-2 0  9999,2 45206  53.0532 138.7731 0002217 152.7903 207.3214 15.32356390317812
STARLINK-1210,45207,53.0216,0.0008554,15.61264383,378.2194202300316,389.7880906344253,1 45207U 20012AF  25322.77594297  .00123871  00000+0  14155-2 0  9996,2 45207  53.0216  97.4915 0008554 118.5209 241.6665 15.61264383319349
STARLINK-1231,45212,53.0463,0.0008073,15.13440996,520.1421450101279,531.2891054588308,1 45212U 20012AL  25322.27683758  .00028727  00000+0  15980-2 0  9999,2 45212  53.0463 164.2986 0008073 103.4072 256.7820 15.13440996318316
STARLINK-1271,45217,53.0522,0.0001228,15.06387128,546.4005713977795,548.1014466928,1 45217U 20012AR  25322.58862120  .00003172  00000+0  23185-3 0  9994,2 45217  53.0522 165.3710 0001228  98.2499 261.8630 15.06387128318374
STARLINK-1191,45222,53.0559,0.0001163,15.06401061,546.402888468896,548.0137237871004,1 45222U 20012AW  25322.79688500 -.00000527  00000+0 -16517-4 0  9996,2 45222  53.0559 144.4353 0001163  96.7936 263.3186 15.06401061318688
STARLINK-1212,45223,53.0501,0.0002849,15.06405837,545.2206417242878,549.1666951391608,1 45223U 20012AX  25322.54999875 -.00001319  00000+0 -69602-4 0  9993,2 45223  53.0501 146.1974 0002849 111.3033 248.8261 15.06405837318641
STARLINK-1215,45225,53.0529,0.0001574,15.06409778,546.0915447926109,548.271635084724,1 45225U 20012AZ  25322.77108733  .00003337  00000+0  24277-3 0  9993,2 45225  53.0529 144.5505 0001574  92.4536 267.6633 15.06409778318635
STARLINK-1221,45227,53.0688,0.0004074,15.37534379,450.619865651448,456.18620447201556,1 45227U 20012BB  25322.72068693  .00019543  00000+0  53200-3 0  9994,2 45227  53.0688  73.6929 0004074  33.0169 327.1088 15.37534379319611
STARLINK-1222,45228,53.0534,0.0001513,15.06398916,546.1670745046649,548.2626859836255,1 45228U 20012BC  25322.80424794 -.00003257  00000+0 -19983-3 0  9999,2 45228  53.0534 144.4028 0001513  95.0164 265.0998 15.06398916318572
STARLINK-1226,45229,53.0529,0.0001467,15.06395873,546.208256138746,548.2401571167702,1 45229U 20012BD  25322.76739988  .00001146  00000+0  95855-4 0  9995,2 45229  53.0529 144.5667 0001467  95.3183 264.7973 15.06395873318577
STARLINK-1227,45230,53.0511,0.0001336,15.06400412,546.285068819263,548.1355216165457,1 45230U 20012BE  25321.90121314  .00003728  00000+0  26900-3 0  9992,2 45230  53.0511 148.4563 0001336  99.5752 260.5388 15.06400412318560
STARLINK-1246,45235,53.0538,0.00011,15.06398799,546.4534500864756,547.9770275790197,1 45235U 20012BK  25322.64575463 -.00001685  00000+0 -94243-4 0  9995,2 45235  53.0538 185.1130 0001100  93.9590 266.1525 15.06398799318120
STARLINK-1270,45237,53.053,5.7e-05,15.06400332,546.815795596478,547.6052852160847,1 45237U 20012BM  25322.78214358  .00000665  00000+0  63522-4 0  9996,2 45237  53.0530 144.5013 0000570 296.5042  63.5888 15.06400332318685
STARLINK-1279,45360,53.0513,0.0007228,15.37273868,449.23641367933396,459.1132036299241,1 45360U 20019A   25322.87046488  .00100982  00000+0  26978-2 0  9992,2 45360  53.0513 267.7487 0007228  71.7004 288.4784 15.37273868313521
STARLINK-1301,45361,53.0519,0.0006305,15.39799358,442.3990617213749,451.0051838552099,1 45361U 20019B   25322.86873544  .00109383  00000+0  26881-2 0  9990,2 45361  53.0519 277.1562 0006305  62.7754 297.3892 15.39799358313409
STARLINK-1306,45362,53.0478,0.0006156,15.76565762,336.04351616361964,344.3151072065657,1 45362U 20019C   25322.91671295  .00211754  00000+0  12738-2 0  9998,2 45362  53.0478 262.4705 0006156  36.3289 115.1826 15.76565762  6015
STARLINK-1262,45366,53.0544,0.0001389,15.06412751,546.2105527488902,548.1344037219451,1 45366U 20019G   25322.22924250  .00004726  00000+0  33582-3 0  9998,2 45366  53.0544 306.9801 0001389  86.0052 274.1096 15.06412751312935
STARLINK-1273,45367,53.054,0.0001611,15.06413233,546.0553338771124,548.2866681150335,1 45367U 20019H   25322.25135350  .00003930  00000+0  28250-3 0  9999,2 45367  53.0540 306.8806 0001611  95.1842 264.9331 15.06413233312937
STARLINK-1276,45368,53.0555,0.0001755,15.06424433,545.9212897943844,548.352060854424,1 45368U 20019J   25322.22186712  .00009815  00000+0  67648-3 0  9997,2 45368  53.0555 307.0175 0001755  73.7911 286.3271 15.06424433312939
STARLINK-1277,45369,53.0546,0.0001273,15.06413887,546.2874051569679,548.0505880637047,1 45369U 20019K   25322.28091444  .00002449  00000+0  18315-3 0  9994,2 45369  53.0546 307.3786 0001273  91.8364 268.2770 15.06413887312933
STARLINK-1281,45370,53.0551,0.000157,15.06409257,546.0959114425041,548.2704619811302,1 45370U 20019L   25322.27715382  .00006060  00000+0  42524-3 0  9991,2 45370  53.0551 306.7707 0001570  95.0830 265.0338 15.06409257312943
STARLINK-1300,45374,53.0527,0.0001928,15.06409259,545.8479788513514,548.5183823129837,1 45374U 20019Q   25322.23292309  .00006812  00000+0  47566-3 0  9996,2 45374  53.0527 306.9653 0001928 101.4082 258.7124 15.06409259312933
STARLINK-1302,45375,53.0551,0.0001487,15.06421652,546.115409008662,548.174987934488,1 45375U 20019R   25322.24766959  .00005202  00000+0  36764-3 0  9995,2 45375  53.0551 306.9012 0001487  94.6562 265.4597 15.06421652312936
STARLINK-1304,45376,53.0541,0.0001233,15.06413918,546.3150113835964,548.0227918189321,1 45376U 20019S   25322.19974568  .00002150  00000+0  16313-3 0  9994,2 45376  53.0541 307.1129 0001233  85.7444 274.3685 15.06413918312929
STARLINK-1305,45377,53.0529,0.0004662,15.33642727,461.7646917825823,468.14519070859933,1 45377U 20019T   25322.16699572  .00092219  00000+0  27719-2 0  9997,2 45377  53.0529 301.7295 0004662  59.1704 300.9755 15.33642727313009
STARLINK-1319,45379,53.0544,0.0003072,15.38154826,449.4677302216014,453.6638996310912,1 45379U 20019V   25322.19987029  .00099170  00000+0  25771-2 0  9998,2 45379  53.0544 303.4135 0003072  74.0997 286.0344 15.38154826312981
